LANDSAT 9               
1 49260U 21088A   23365.79373508  .00000557  00000+0  13362-3 0  9995
2 49260  98.2092  73.0987 0001102  89.7571 270.3754 14.57123918120167
